OBJECT_NAME,OBJECT_ID,EPOCH,MEAN_MOTION,ECCENTRICITY,INCLINATION,RA_OF_ASC_NODE,ARG_OF_PERICENTER,MEAN_ANOMALY,EPHEMERIS_TYPE,CLASSIFICATION_TYPE,NORAD_CAT_ID,ELEMENT_SET_NO,REV_AT_EPOCH,BSTAR,MEAN_MOTION_DOT,MEAN_MOTION_DDOT
STARLINK-37577,2026-127K,2026-07-05T08:26:54.413952,15.75190693,.000122,53.1602,171.7121,104.8454,255.2701,0,U,69452,999,427,.1465E-2,.229645E-2,0
STARLINK-37500,2026-127L,2026-07-05T04:06:20.028960,15.75120678,.000122,53.1568,172.7180,80.9439,279.1719,0,U,69453,999,424,.2522E-2,.402871E-2,0
STARLINK-37575,2026-127M,2026-07-04T09:30:23.115168,15.75353134,.0000325,53.1598,176.4157,106.8459,253.2597,0,U,69454,999,412,.16461E-2,.260937E-2,0
STARLINK-37642,2026-127N,2026-07-05T05:44:14.538624,15.75202603,.0000513,53.1565,172.4335,65.0306,295.0768,0,U,69455,999,425,.71773E-3,.110652E-2,0
STARLINK-37513,2026-127P,2026-07-05T14:00:03.000384,15.75192042,.00004659,53.1592,170.0856,103.5167,1.0506,0,U,69456,999,560,.50860584E-3,.77883E-3,0
STARLINK-37563,2026-127Q,2026-07-04T08:05:33.864000,15.75292568,.0001381,53.1598,176.7594,93.3914,266.7264,0,U,69457,999,411,.57461E-3,.88575E-3,0
STARLINK-37565,2026-127R,2026-07-04T09:23:22.328160,15.75368865,.0002113,53.1585,176.3801,248.6253,111.4542,0,U,69458,999,412,.22246E-2,.357175E-2,0
STARLINK-37498,2026-127S,2026-07-05T14:00:03.000384,15.75231889,.00012236,53.1565,170.6657,86.9654,94.2301,0,U,69459,999,560,.47782807E-3,.73219E-3,0
STARLINK-37384,2026-127T,2026-07-05T03:46:16.211712,15.75135621,.0002358,53.1601,172.6278,18.5151,341.5955,0,U,69460,999,424,.17149E-2,.269566E-2,0
STARLINK-37707,2026-127U,2026-07-03T12:04:46.883424,15.75432955,.000165,53.1589,180.7952,68.8411,291.2786,0,U,69461,999,398,.21633E-2,.347899E-2,0
STARLINK-37525,2026-127V,2026-07-05T08:07:18.731136,15.75235361,.0002683,53.1581,171.6179,63.1119,297.0175,0,U,69462,999,427,.2802E-2,.452583E-2,0
STARLINK-37526,2026-127W,2026-07-04T22:53:00.945024,15.75401971,.0001986,53.1569,173.4811,110.8828,249.2405,0,U,69463,999,421,.22208E-2,.35708E-2,0
STARLINK-37574,2026-127X,2026-07-04T22:59:33.332352,15.75486798,.000118,53.1568,173.5112,141.6545,218.4559,0,U,69464,999,421,.34305E-2,.568237E-2,0
STARLINK-37535,2026-127Y,2026-07-05T11:03:29.752992,15.75255734,.00014963,53.1566,170.9558,77.6017,282.5171,0,U,69465,999,429,.23072628E-2,.369186E-2,0
STARLINK-37583,2026-127Z,2026-07-05T13:27:29.540448,15.75169938,.00015921,53.1593,170.1453,52.2400,307.8764,0,U,69466,999,431,.10878639E-2,.168979E-2,0
STARLINK-37546,2026-127AA,2026-07-04T22:46:29.290368,15.75502113,.00021,53.1572,173.4470,159.5248,200.5856,0,U,69467,999,421,.26288E-2,.428285E-2,0
STARLINK-37532,2026-127AB,2026-07-05T14:00:03.000384,15.75184901,.00015335,53.1596,169.8744,79.8077,125.9060,0,U,69468,999,560,.30111314E-3,.45658E-3,0
STARLINK-37708,2026-127AC,2026-07-05T04:51:29.640960,15.75300714,.0000785,53.1570,172.1831,113.2218,246.8885,0,U,69469,999,425,.20234E-2,.322524E-2,0
STARLINK-37686,2026-127AD,2026-07-05T10:50:53.857536,15.75169026,.00008744,53.1580,170.8947,69.4930,290.6184,0,U,69470,999,429,.12804401E-2,.199729E-2,0
STARLINK-37451,2026-127AE,2026-07-05T08:05:19.747104,15.80966159,.000131,53.1576,170.8666,110.3949,249.7214,0,U,69471,999,428,.14894E-2,.305191E-2,0
STARLINK-37816,2026-131A,2026-07-05T08:00:03.000384,15.80786633,.0001143,97.2848,207.6628,104.6826,126.7305,0,U,69478,999,492,.27104E-3,.52015E-3,0
STARLINK-37878,2026-131B,2026-07-05T05:38:25.041120,15.80911308,.0000596,97.2848,207.5469,51.6766,308.4556,0,U,69479,999,501,.16135E-2,.322013E-2,0
STARLINK-37817,2026-131C,2026-07-02T16:00:01.999584,15.80776829,.0001807,97.2834,204.8472,101.2192,93.1313,0,U,69480,999,449,.21289028E-3,.40756E-3,0
STARLINK-37727,2026-131D,2026-07-05T00:53:37.919616,15.80874599,.0001769,97.2835,207.3565,72.4926,287.6535,0,U,69481,999,498,.1342E-2,.265598E-2,0
STARLINK-37814,2026-131E,2026-07-05T00:52:32.824128,15.80906652,.0001373,97.2872,207.3571,60.5068,299.6337,0,U,69482,999,498,.19985E-2,.402542E-2,0
STARLINK-37869,2026-131F,2026-07-04T00:00:02.998944,15.80795949,.0001177,97.2832,206.2639,84.5685,145.4313,0,U,69483,999,471,.31925E-3,.61384E-3,0
STARLINK-37873,2026-131G,2026-07-05T08:26:09.447936,15.81002596,.0002266,97.2838,207.6941,323.0869,37.0243,0,U,69484,999,503,.31571E-2,.65804E-2,0
