STARLINK-37577          
1 69452U 26127K   26186.35201868  .00229645  00000+0  14650-2 0  9995
2 69452  53.1602 171.7121 0001220 104.8454 255.2701 15.75190693  4277
STARLINK-37500          
1 69453U 26127L   26186.17106515  .00402871  00000+0  25220-2 0  9998
2 69453  53.1568 172.7180 0001220  80.9439 279.1719 15.75120678  4249
STARLINK-37575          
1 69454U 26127M   26185.39610087  .00260937  00000+0  16461-2 0  9998
2 69454  53.1598 176.4157 0000325 106.8459 253.2597 15.75353134  4122
STARLINK-37642          
1 69455U 26127N   26186.23905716  .00110652  00000+0  71773-3 0  9995
2 69455  53.1565 172.4335 0000513  65.0306 295.0768 15.75202603  4259
STARLINK-37513          
1 69456U 26127P   26186.58336806  .00077883  00000+0  50861-3 0  9995
2 69456  53.1592 170.0856 0000465 103.5167   1.0506 15.75192042  5601
STARLINK-37563          
1 69457U 26127Q   26185.33719750  .00088575  00000+0  57461-3 0  9994
2 69457  53.1598 176.7594 0001381  93.3914 266.7264 15.75292568  4114
STARLINK-37565          
1 69458U 26127R   26185.39123065  .00357175  00000+0  22246-2 0  9996
2 69458  53.1585 176.3801 0002113 248.6253 111.4542 15.75368865  4123
STARLINK-37498          
1 69459U 26127S   26186.58336806  .00073219  00000+0  47783-3 0  9996
2 69459  53.1565 170.6657 0001223  86.9654  94.2301 15.75231889  5607
STARLINK-37384          
1 69460U 26127T   26186.15713208  .00269566  00000+0  17149-2 0  9990
2 69460  53.1601 172.6278 0002358  18.5151 341.5955 15.75135621  4243
STARLINK-37707          
1 69461U 26127U   26184.50332041  .00347899  00000+0  21633-2 0  9999
2 69461  53.1589 180.7952 0001650  68.8411 291.2786 15.75432955  3982
STARLINK-37525          
1 69462U 26127V   26186.33841124  .00452583  00000+0  28020-2 0  9994
2 69462  53.1581 171.6179 0002683  63.1119 297.0175 15.75235361  4276
STARLINK-37526          
1 69463U 26127W   26185.95348316  .00357080  00000+0  22208-2 0  9995
2 69463  53.1569 173.4811 0001986 110.8828 249.2405 15.75401971  4219
STARLINK-37574          
1 69464U 26127X   26185.95802468  .00568237  00000+0  34305-2 0  9998
2 69464  53.1568 173.5112 0001180 141.6545 218.4559 15.75486798  4216
STARLINK-37535          
1 69465U 26127Y   26186.46076103  .00369186  00000+0  23073-2 0  9997
2 69465  53.1566 170.9558 0001496  77.6017 282.5171 15.75255734  4296
STARLINK-37583          
1 69466U 26127Z   26186.56075857  .00168979  00000+0  10879-2 0  9991
2 69466  53.1593 170.1453 0001592  52.2400 307.8764 15.75169938  4317
STARLINK-37546          
1 69467U 26127AA  26185.94895012  .00428285  00000+0  26288-2 0  9996
2 69467  53.1572 173.4470 0002100 159.5248 200.5856 15.75502113  4213
STARLINK-37532          
1 69468U 26127AB  26186.58336806  .00045658  00000+0  30111-3 0  9999
2 69468  53.1596 169.8744 0001533  79.8077 125.9060 15.75184901  5608
STARLINK-37708          
1 69469U 26127AC  26186.20242640  .00322524  00000+0  20234-2 0  9995
2 69469  53.1570 172.1831 0000785 113.2218 246.8885 15.75300714  4253
STARLINK-37686          
1 69470U 26127AD  26186.45201224  .00199729  00000+0  12804-2 0  9990
2 69470  53.1580 170.8947 0000874  69.4930 290.6184 15.75169026  4293
STARLINK-37451          
1 69471U 26127AE  26186.33703411  .00305191  00000+0  14894-2 0  9996
2 69471  53.1576 170.8666 0001310 110.3949 249.7214 15.80966159  4285
STARLINK-37816          
1 69478U 26131A   26186.33336806  .00052015  00000+0  27104-3 0  9991
2 69478  97.2848 207.6628 0001143 104.6826 126.7305 15.80786633  4927
STARLINK-37878          
1 69479U 26131B   26186.23501205  .00322013  00000+0  16135-2 0  9997
2 69479  97.2848 207.5469 0000596  51.6766 308.4556 15.80911308  5012
STARLINK-37817          
1 69480U 26131C   26183.66668981  .00040756  00000+0  21289-3 0  9996
2 69480  97.2834 204.8472 0001807 101.2192  93.1313 15.80776829  4491
STARLINK-37727          
1 69481U 26131D   26186.03724444  .00265598  00000+0  13420-2 0  9998
2 69481  97.2835 207.3565 0001769  72.4926 287.6535 15.80874599  4988
STARLINK-37814          
1 69482U 26131E   26186.03649102  .00402542  00000+0  19985-2 0  9990
2 69482  97.2872 207.3571 0001373  60.5068 299.6337 15.80906652  4982
STARLINK-37869          
1 69483U 26131F   26185.00003471  .00061384  00000+0  31925-3 0  9994
2 69483  97.2832 206.2639 0001177  84.5685 145.4313 15.80795949  4713
STARLINK-37873          
1 69484U 26131G   26186.35149824  .00658040  00000+0  31571-2 0  9994
2 69484  97.2838 207.6941 0002266 323.0869  37.0243 15.81002596  5030
